OBJECT_NAME,OBJECT_ID,EPOCH,MEAN_MOTION,ECCENTRICITY,INCLINATION,RA_OF_ASC_NODE,ARG_OF_PERICENTER,MEAN_ANOMALY,EPHEMERIS_TYPE,CLASSIFICATION_TYPE,NORAD_CAT_ID,ELEMENT_SET_NO,REV_AT_EPOCH,BSTAR,MEAN_MOTION_DOT,MEAN_MOTION_DDOT
BEIDOU-2 G8 (C01),2019-027A,2026-06-08T19:12:09.752832,1.00274301,.0010504,1.6359,74.4917,284.3017,330.9557,0,U,44231,999,2599,0,-.23E-5,0
COSMOS 2534 (758),2019-030A,2026-06-08T14:47:53.953152,2.13102483,.00132728,64.3678,192.9050,275.0363,129.0029,0,U,44299,999,5474,0,.99E-6,0
BEIDOU-3 IGSO-2 (C39),2019-035A,2026-06-07T14:49:18.793632,1.00269667,.0039801,55.2450,158.9464,216.2892,222.9944,0,U,44337,999,2557,0,-.54E-6,0
GPS BIII-2  (PRN 18),2019-056A,2026-06-08T14:55:59.869344,2.00569684,.0061566,55.6421,331.4837,197.5351,125.3901,0,U,44506,999,4989,0,-.59E-6,0
BEIDOU-3 M24 (C46),2019-061A,2026-06-08T02:44:30.724800,1.86229351,.00082899,54.3960,183.0341,359.2715,0.7843,0,U,44542,999,4562,0,.106E-5,0
BEIDOU-3 M23 (C45),2019-061B,2026-06-08T09:37:32.328768,1.86227533,.00055487,54.3944,182.9926,338.1932,125.8150,0,U,44543,999,4563,0,.11E-5,0
EUTELSAT 5 WEST B (EGNOS/PRN 121),2019-067A,2026-06-08T18:29:31.143840,1.00271997,.0003145,0.0633,346.9208,90.8178,91.8083,0,U,44624,999,2435,0,-.26E-6,0
BEIDOU-3 IGSO-3 (C40),2019-073A,2026-05-16T19:27:04.075776,1.00246251,.0042953,54.8566,281.2355,189.4588,170.3676,0,U,44709,999,2414,0,-.217E-5,0
BEIDOU-3 M22 (C44),2019-078A,2026-06-08T11:46:51.684672,1.86227640,.0006491,53.9443,300.1340,49.1992,310.8495,0,U,44793,999,4448,0,-.58E-6,0
BEIDOU-3 M21 (C43),2019-078B,2026-06-08T02:15:09.535968,1.86228064,.00044205,53.9180,300.1093,47.4786,312.5515,0,U,44794,999,4448,0,-.57E-6,0
COSMOS 2544 (759),2019-088A,2026-06-07T15:27:34.197984,2.13102192,.00136537,65.5607,74.0490,259.6167,100.2516,0,U,44850,999,5051,0,-.1E-6,0
BEIDOU-3 M19 (C41),2019-090A,2026-06-06T10:56:36.782592,1.86231867,.00181153,56.5493,63.1460,297.5322,241.6390,0,U,44864,999,4403,0,-.38E-6,0
BEIDOU-3 M20 (C42),2019-090B,2026-06-08T11:19:03.794880,1.86231436,.0015824,56.5524,63.1141,311.5803,228.5315,0,U,44865,999,4405,0,-.44E-6,0
BEIDOU-3 G2 (C60),2020-017A,2026-06-08T18:53:44.074752,1.00273788,.0002536,2.8465,47.2148,28.6160,184.8290,0,U,45344,999,2317,0,-.125E-5,0
COSMOS 2545 (760),2020-018A,2026-06-07T20:08:25.794816,2.13102843,.00079483,64.3612,312.7475,231.5141,128.4125,0,U,45358,999,4846,0,-.31E-6,0
BEIDOU-3 G3 (C61),2020-040A,2026-06-08T20:45:05.548320,1.00271857,.0002879,2.4259,67.4316,338.5524,273.1203,0,U,45807,999,2198,0,-.338E-5,0
GPS BIII-3  (PRN 23),2020-041A,2026-06-08T12:18:34.571232,2.00558916,.00635514,56.6637,29.2806,204.6446,338.1144,0,U,45854,999,4386,0,-.66E-6,0
GALAXY 30 (WAAS/PRN 135),2020-056C,2026-06-08T17:55:16.418784,1.00273026,.0002187,0.0161,305.4442,127.9721,327.5322,0,U,46114,999,2120,0,.53E-6,0
COSMOS 2547 (705K),2020-075A,2026-06-05T05:06:49.888224,2.13100365,.0009155,64.5987,192.8757,239.4130,120.5675,0,U,46805,999,4365,0,.69E-6,0
GPS BIII-4  (PRN 14),2020-078A,2026-06-08T09:51:13.474368,2.00564886,.00731796,53.9810,211.1349,206.9059,238.0164,0,U,46826,999,4133,0,.59E-6,0
GPS BIII-5  (PRN 11),2021-054A,2026-06-08T00:22:26.474016,2.00569684,.00251061,55.1794,332.8289,228.6051,117.2821,0,U,48859,999,3656,0,-.6E-6,0
QZS-1R (QZSS/PRN 196),2021-096A,2026-06-08T15:41:36.686112,1.00258746,.075431,37.4439,79.7113,271.6148,275.6279,0,U,49336,999,1692,0,-.231E-5,0
GSAT0223 (GALILEO 27),2021-116A,2026-06-07T21:43:24.014784,1.70476094,.00012555,57.1628,341.9264,184.9804,358.2440,0,U,49809,999,2802,0,-.62E-6,0
GSAT0224 (GALILEO 28),2021-116B,2026-06-08T07:17:56.063040,1.70476102,.00009719,57.1644,341.9144,150.8556,29.8565,0,U,49810,999,2805,0,-.62E-6,0
COSMOS 2557 (706K),2022-075A,2026-06-08T15:53:40.217856,2.13102172,.0010227,64.3022,314.7857,275.3333,84.5486,0,U,52984,999,3053,0,-.33E-6,0
COSMOS 2559 (707K),2022-130A,2026-06-06T03:15:13.547808,2.13101704,.00123738,64.2805,314.9582,177.2217,182.7817,0,U,54031,999,2845,0,-.32E-6,0
COSMOS 2564 (761),2022-161A,2026-06-08T07:48:16.220736,2.13102033,.00120807,64.7409,193.0060,224.3467,135.6256,0,U,54377,999,2744,0,.96E-6,0
GPS BIII-6  (PRN 28),2023-009A,2026-06-07T05:43:38.653248,2.00572185,.00061926,55.1217,148.9102,318.0671,224.9740,0,U,55268,999,2504,0,.101E-5,0
BEIDOU-3 G4 (C62),2023-066A,2026-06-08T19:10:54.871680,1.00266602,.0004412,0.4971,329.1915,170.2709,185.4123,0,U,56564,999,1130,0,-.266E-5,0
NVS-01 (IRNSS-1J),2023-076A,2026-06-08T19:07:55.158816,1.00269421,.0002998,2.1870,244.7389,40.1474,28.8611,0,U,56759,999,1103,0,-.318E-5,0
COSMOS 2569 (703K),2023-114A,2026-06-08T08:06:02.210112,2.13103725,.0011008,65.2973,72.9189,296.8440,63.0658,0,U,57517,999,2207,0,-.16E-6,0
